{
  "type": "FeatureCollection",
  "features": [
    {
      "type": "Feature",
      "properties": {
        "norad_id": 31439,
        "name": "FENGYUN 1C DEB",
        "group": "fengyun-1c-debris",
        "lat": 48.275113239636546,
        "lon": -6.167141777055348,
        "alt_km": 887.2985836931275,
        "timestamp": "2025-12-24T07:45:06.482300+00:00",
        "meta_object_name": "FENGYUN 1C DEB",
        "meta_object_id": "1999-025BUB",
        "meta_epoch": "2025-12-23T07:30:22.520160",
        "meta_mean_motion": 13.9559946,
        "meta_eccentricity": 0.01381268,
        "meta_inclination": 98.9165,
        "meta_ra_of_asc_node": 2.9948,
        "meta_arg_of_pericenter": 132.7563,
        "meta_mean_anomaly": 245.1559,
        "meta_ephemeris_type": 0,
        "meta_classification_type": "U",
        "meta_norad_cat_id": 31439,
        "meta_element_set_no": 999,
        "meta_rev_at_epoch": 63380,
        "meta_bstar": 0.00081324551,
        "meta_mean_motion_dot": 1.157e-05,
        "meta_mean_motion_ddot": 0,
        "tle_line1": "1 31439U 99025BUB 25357.31276065  .00001157  00000+0  81325-3 0  9992",
        "tle_line2": "2 31439  98.9165   2.9948 0138126 132.7563 245.1559 13.95599460633802"
      },
      "geometry": {
        "type": "Point",
        "coordinates": [
          -6.167141777055348,
          48.275113239636546
        ]
      }
    },
    {
      "type": "Feature",
      "properties": {
        "norad_id": 31440,
        "name": "FENGYUN 1C DEB",
        "group": "fengyun-1c-debris",
        "lat": -80.0788151039919,
        "lon": -155.16248712214403,
        "alt_km": 756.4147062522297,
        "timestamp": "2025-12-24T07:45:06.482314+00:00",
        "meta_object_name": "FENGYUN 1C DEB",
        "meta_object_id": "1999-025BUC",
        "meta_epoch": "2025-12-20T23:57:52.458048",
        "meta_mean_motion": 14.36774985,
        "meta_eccentricity": 0.00371554,
        "meta_inclination": 98.7467,
        "meta_ra_of_asc_node": 83.1278,
        "meta_arg_of_pericenter": 316.3908,
        "meta_mean_anomaly": 43.4343,
        "meta_ephemeris_type": 0,
        "meta_classification_type": "U",
        "meta_norad_cat_id": 31440,
        "meta_element_set_no": 999,
        "meta_rev_at_epoch": 96444,
        "meta_bstar": 0.0011949731,
        "meta_mean_motion_dot": 3.51e-05,
        "meta_mean_motion_ddot": 0,
        "tle_line1": "1 31440U 99025BUC 25354.99852382  .00003510  00000+0  11950-2 0  9998",
        "tle_line2": "2 31440  98.7467  83.1278 0037155 316.3908  43.4343 14.36774985964447"
      },
      "geometry": {
        "type": "Point",
        "coordinates": [
          -155.16248712214403,
          -80.0788151039919
        ]
      }
    },
    {
      "type": "Feature",
      "properties": {
        "norad_id": 31441,
        "name": "FENGYUN 1C DEB",
        "group": "fengyun-1c-debris",
        "lat": 75.2800365114644,
        "lon": -175.7684253646709,
        "alt_km": 687.7003834226743,
        "timestamp": "2025-12-24T07:45:06.482325+00:00",
        "meta_object_name": "FENGYUN 1C DEB",
        "meta_object_id": "1999-025BUD",
        "meta_epoch": "2025-12-23T10:14:42.763776",
        "meta_mean_motion": 14.75921975,
        "meta_eccentricity": 0.01012539,
        "meta_inclination": 99.3122,
        "meta_ra_of_asc_node": 221.8507,
        "meta_arg_of_pericenter": 302.829,
        "meta_mean_anomaly": 56.3196,
        "meta_ephemeris_type": 0,
        "meta_classification_type": "U",
        "meta_norad_cat_id": 31441,
        "meta_element_set_no": 999,
        "meta_rev_at_epoch": 64248,
        "meta_bstar": 0.0056101774,
        "meta_mean_motion_dot": 0.00042094,
        "meta_mean_motion_ddot": 0,
        "tle_line1": "1 31441U 99025BUD 25357.42688384  .00042094  00000+0  56102-2 0  9997",
        "tle_line2": "2 31441  99.3122 221.8507 0101253 302.8290  56.3196 14.75921975642486"
      },
      "geometry": {
        "type": "Point",
        "coordinates": [
          -175.7684253646709,
          75.2800365114644
        ]
      }
    },
    {
      "type": "Feature",
      "properties": {
        "norad_id": 31442,
        "name": "FENGYUN 1C DEB",
        "group": "fengyun-1c-debris",
        "lat": 41.17545540791689,
        "lon": -88.31089961417706,
        "alt_km": 827.9656090374856,
        "timestamp": "2025-12-24T07:45:06.482335+00:00",
        "meta_object_name": "FENGYUN 1C DEB",
        "meta_object_id": "1999-025BUE",
        "meta_epoch": "2025-12-23T12:41:18.145536",
        "meta_mean_motion": 14.33949749,
        "meta_eccentricity": 0.0078508,
        "meta_inclination": 98.53,
        "meta_ra_of_asc_node": 83.3625,
        "meta_arg_of_pericenter": 340.6077,
        "meta_mean_anomaly": 19.2124,
        "meta_ephemeris_type": 0,
        "meta_classification_type": "U",
        "meta_norad_cat_id": 31442,
        "meta_element_set_no": 999,
        "meta_rev_at_epoch": 97515,
        "meta_bstar": 0.00031616522,
        "meta_mean_motion_dot": 8.69e-06,
        "meta_mean_motion_ddot": 0,
        "tle_line1": "1 31442U 99025BUE 25357.52868224  .00000869  00000+0  31617-3 0  9991",
        "tle_line2": "2 31442  98.5300  83.3625 0078508 340.6077  19.2124 14.33949749975152"
      },
      "geometry": {
        "type": "Point",
        "coordinates": [
          -88.31089961417706,
          41.17545540791689
        ]
      }
    },
    {
      "type": "Feature",
      "properties": {
        "norad_id": 31443,
        "name": "FENGYUN 1C DEB",
        "group": "fengyun-1c-debris",
        "lat": 74.19795802822948,
        "lon": -46.16010701029116,
        "alt_km": 615.799565340053,
        "timestamp": "2025-12-24T07:45:06.482345+00:00",
        "meta_object_name": "FENGYUN 1C DEB",
        "meta_object_id": "1999-025BUF",
        "meta_epoch": "2025-12-22T12:11:57.510528",
        "meta_mean_motion": 14.4877707,
        "meta_eccentricity": 0.01913588,
        "meta_inclination": 99.2113,
        "meta_ra_of_asc_node": 96.8738,
        "meta_arg_of_pericenter": 69.2188,
        "meta_mean_anomaly": 292.9389,
        "meta_ephemeris_type": 0,
        "meta_classification_type": "U",
        "meta_norad_cat_id": 31443,
        "meta_element_set_no": 999,
        "meta_rev_at_epoch": 67083,
        "meta_bstar": 0.0011434447,
        "meta_mean_motion_dot": 5.391e-05,
        "meta_mean_motion_ddot": 0,
        "tle_line1": "1 31443U 99025BUF 25356.50830452  .00005391  00000+0  11434-2 0  9990",
        "tle_line2": "2 31443  99.2113  96.8738 0191358  69.2188 292.9389 14.48777070670835"
      },
      "geometry": {
        "type": "Point",
        "coordinates": [
          -46.16010701029116,
          74.19795802822948
        ]
      }
    },
    {
      "type": "Feature",
      "properties": {
        "norad_id": 31444,
        "name": "FENGYUN 1C DEB",
        "group": "fengyun-1c-debris",
        "lat": -56.314915719330386,
        "lon": 107.8012847477,
        "alt_km": 709.0952651839007,
        "timestamp": "2025-12-24T07:45:06.482355+00:00",
        "meta_object_name": "FENGYUN 1C DEB",
        "meta_object_id": "1999-025BUG",
        "meta_epoch": "2025-12-22T02:24:16.096320",
        "meta_mean_motion": 14.70070692,
        "meta_eccentricity": 0.00626396,
        "meta_inclination": 98.9296,
        "meta_ra_of_asc_node": 299.0143,
        "meta_arg_of_pericenter": 44.119,
        "meta_mean_anomaly": 316.4986,
        "meta_ephemeris_type": 0,
        "meta_classification_type": "U",
        "meta_norad_cat_id": 31444,
        "meta_element_set_no": 999,
        "meta_rev_at_epoch": 97626,
        "meta_bstar": 0.0017329246,
        "meta_mean_motion_dot": 0.00010681,
        "meta_mean_motion_ddot": 0,
        "tle_line1": "1 31444U 99025BUG 25356.10018630  .00010681  00000+0  17329-2 0  9990",
        "tle_line2": "2 31444  98.9296 299.0143 0062639  44.1190 316.4986 14.70070692976267"
      },
      "geometry": {
        "type": "Point",
        "coordinates": [
          107.8012847477,
          -56.314915719330386
        ]
      }
    },
    {
      "type": "Feature",
      "properties": {
        "norad_id": 31447,
        "name": "FENGYUN 1C DEB",
        "group": "fengyun-1c-debris",
        "lat": 18.30896821955898,
        "lon": -137.14849178366856,
        "alt_km": 967.8469158839316,
        "timestamp": "2025-12-24T07:45:06.482365+00:00",
        "meta_object_name": "FENGYUN 1C DEB",
        "meta_object_id": "1999-025BUK",
        "meta_epoch": "2025-12-14T21:01:38.356896",
        "meta_mean_motion": 14.2403744,
        "meta_eccentricity": 0.02304397,
        "meta_inclination": 98.9919,
        "meta_ra_of_asc_node": 30.1793,
        "meta_arg_of_pericenter": 349.1545,
        "meta_mean_anomaly": 10.471,
        "meta_ephemeris_type": 0,
        "meta_classification_type": "U",
        "meta_norad_cat_id": 31447,
        "meta_element_set_no": 999,
        "meta_rev_at_epoch": 64882,
        "meta_bstar": 0.00018562598,
        "meta_mean_motion_dot": 5.08e-06,
        "meta_mean_motion_ddot": 0,
        "tle_line1": "1 31447U 99025BUK 25348.87613839  .00000508  00000+0  18563-3 0  9999",
        "tle_line2": "2 31447  98.9919  30.1793 0230439 349.1545  10.4710 14.24037440648821"
      },
      "geometry": {
        "type": "Point",
        "coordinates": [
          -137.14849178366856,
          18.30896821955898
        ]
      }
    }
  ]
}